NORAD_CAT_ID,OBJECT_NAME,OBJECT_TYPE,EPOCH,MEAN_MOTION,ECCENTRICITY,INCLINATION,RA_OF_ASC_NODE,ARG_OF_PERICENTER,MEAN_ANOMALY,BSTAR,MEAN_MOTION_DOT,MEAN_MOTION_DDOT,TLE_LINE0,TLE_LINE1,TLE_LINE2,SEMIMAJOR_AXIS,PERIOD,APOGEE,PERIGEE,DECAYED
49748.0,STARLINK-3248,PAYLOAD,2023-01-24 12:41:39,15.0884037,0.0001504,53.2129,227.5123,77.8175,282.2985,0.00015564,2.19e-05,0.0,0 STARLINK-3248,1 49748U 21115AA  23024.52893448  .00002190  00000-0  15564-3 0  9992,2 49748  53.2129 227.5123 0001504  77.8175 282.2985 15.08840370 64522,6917.879,95.438,540.785,538.7040000000001,0.0
49748.0,STARLINK-3248,PAYLOAD,2023-01-25 06:10:54,15.08837783,0.0001498,53.2133,224.2418,81.5476,278.5686,1.804e-05,-1e-08,0.0,0 STARLINK-3248,1 49748U 21115AA  23025.25757542 -.00000001  00000-0  18040-4 0  9990,2 49748  53.2133 224.2418 0001498  81.5476 278.5686 15.08837783 63525,6917.887,95.438,540.788,538.716,0.0
49748.0,STARLINK-3248,PAYLOAD,2023-01-25 17:18:36,15.08836712,0.0001361999999999,53.2134,222.1597,86.2092,273.9055,4.4395e-05,4.19e-06,0.0,0 STARLINK-3248,1 49748U 21115AA  23025.72125626  .00000419  00000-0  44395-4 0  9998,2 49748  53.2134 222.1597 0001362  86.2092 273.9055 15.08836712 64708,6917.89,95.438,540.698,538.813,0.0
49748.0,STARLINK-3248,PAYLOAD,2023-01-26 06:01:41,15.08838351,0.0001401,53.2142,219.7808,83.4538,276.6613,7.7533e-05,9.46e-06,0.0,0 STARLINK-3248,1 49748U 21115AA  23026.25117925  .00000946  00000-0  77533-4 0  9995,2 49748  53.2142 219.7808 0001401  83.4538 276.6613 15.08838351 63678,6917.885,95.438,540.72,538.781,0.0
49748.0,STARLINK-3248,PAYLOAD,2023-01-26 20:20:09,15.08840954,0.0001416999999999,53.2142,217.1044,83.0997,277.0156,9.1308e-05,1.166e-05,0.0,0 STARLINK-3248,1 49748U 21115AA  23026.84733741  .00001166  00000-0  91308-4 0  9991,2 49748  53.2142 217.1044 0001417  83.0997 277.0156 15.08840954 64876,6917.877,95.437,540.7230000000001,538.762,0.0
49748.0,STARLINK-3248,PAYLOAD,2023-01-27 12:14:01,15.08839666,0.0001467,53.2144,214.1297,83.7839,276.332,9.3836e-05,1.206e-05,0.0,0 STARLINK-3248,1 49748U 21115AA  23027.50973797  .00001206  00000-0  93836-4 0  9995,2 49748  53.2144 214.1297 0001467  83.7839 276.3320 15.08839666 63863,6917.880999999999,95.438,540.761,538.732,0.0
49748.0,STARLINK-3248,PAYLOAD,2023-01-27 18:35:33,15.08843352,0.0001463,53.2144,212.941,82.06700000000001,278.0488,9.9699e-05,1.299e-05,0.0,0 STARLINK-3248,1 49748U 21115AA  23027.77469571  .00001299  00000-0  99699-4 0  9999,2 49748  53.2144 212.9410 0001463  82.0670 278.0488 15.08843352 63903,6917.87,95.437,540.747,538.7230000000001,0.0
49748.0,STARLINK-3248,PAYLOAD,2023-01-28 05:43:15,15.08841459,0.0001453999999999,53.2144,210.8593,81.5329,278.5828,8.4356e-05,1.055e-05,0.0,0 STARLINK-3248,1 49748U 21115AA  23028.23837636  .00001055  00000-0  84356-4 0  9996,2 49748  53.2144 210.8593 0001454  81.5329 278.5828 15.08841459 65087,6917.876,95.437,540.747,538.735,0.0
49748.0,STARLINK-3248,PAYLOAD,2023-01-28 12:04:48,15.08839601,0.0001464,53.214,209.6701,81.2599,278.8559,6.4066e-05,7.32e-06,0.0,0 STARLINK-3248,1 49748U 21115AA  23028.50333796  .00000732  00000-0  64066-4 0  9991,2 49748  53.2140 209.6701 0001464  81.2599 278.8559 15.08839601 64019,6917.882,95.438,540.759,538.734,0.0
49748.0,STARLINK-3248,PAYLOAD,2023-01-28 21:37:06,15.08843445,0.0001358,53.2146,207.8852,85.9008,274.2139,6.8787e-05,8.07e-06,0.0,0 STARLINK-3248,1 49748U 21115AA  23028.90077432  .00000807  00000-0  68787-4 0  9994,2 49748  53.2146 207.8852 0001358  85.9008 274.2139 15.08843445 64071,6917.87,95.437,540.674,538.795,0.0
49748.0,STARLINK-3248,PAYLOAD,2023-01-29 11:55:35,15.08836443,0.0001392,53.2138,205.2078,89.0533,271.0618,4.1312e-07,-2.81e-06,0.0,0 STARLINK-3248,1 49748U 21115AA  23029.49694031 -.00000281  00000-0  41312-6 0  9993,2 49748  53.2138 205.2078 0001392  89.0533 271.0618 15.08836443 65270,6917.891,95.438,540.719,538.793,0.0
49748.0,STARLINK-3248,PAYLOAD,2023-01-29 21:27:54,15.08839536,0.000139,53.2142,203.4238,89.1214,270.9937,9.8558e-06,-1.31e-06,0.0,0 STARLINK-3248,1 49748U 21115AA  23029.89437772 -.00000131  00000-0  98558-5 0  9991,2 49748  53.2142 203.4238 0001390  89.1214 270.9937 15.08839536 64220,6917.882,95.438,540.708,538.785,0.0
49748.0,STARLINK-3248,PAYLOAD,2023-01-30 11:46:22,15.08835663,0.0001351,53.2142,200.7468,93.0297,267.0849,2.4725e-05,1.06e-06,0.0,0 STARLINK-3248,1 49748U 21115AA  23030.49054020  .00000106  00000-0  24725-4 0  9995,2 49748  53.2142 200.7468 0001351  93.0297 267.0849 15.08835663 64313,6917.894,95.438,540.693,538.824,0.0
49748.0,STARLINK-3248,PAYLOAD,2023-01-30 21:18:41,15.08840142,0.0001271,53.2141,198.9625,92.1056,268.0082,2.342e-05,8.5e-07,0.0,0 STARLINK-3248,1 49748U 21115AA  23030.88797745  .00000085  00000-0  23420-4 0  9993,2 49748  53.2141 198.9625 0001271  92.1056 268.0082 15.08840142 65486,6917.88,95.438,540.624,538.866,0.0
49748.0,STARLINK-3248,PAYLOAD,2023-01-31 11:37:09,15.08834201,0.0001309,53.2142,196.286,98.1494,261.9647,2.0786e-05,4.3e-07,0.0,0 STARLINK-3248,1 49748U 21115AA  23031.48414278  .00000043  00000-0  20786-4 0  9993,2 49748  53.2142 196.2860 0001309  98.1494 261.9647 15.08834201 65571,6917.898,95.438,540.669,538.858,0.0
49748.0,STARLINK-3248,PAYLOAD,2023-02-01 09:52:33,15.088368,0.0001313,53.2131,192.1231,93.4641,266.6501,4.3502e-05,4.04e-06,0.0,0 STARLINK-3248,1 49748U 21115AA  23032.41150232  .00000404  00000-0  43502-4 0  9996,2 49748  53.2131 192.1231 0001313  93.4641 266.6501 15.08836800 64604,6917.89,95.438,540.663,538.847,0.0
49748.0,STARLINK-3248,PAYLOAD,2023-02-02 11:18:44,15.08837533,0.0001288,53.2171,187.367,97.6617,262.4521,5.3784e-05,5.68e-06,0.0,0 STARLINK-3248,1 49748U 21115AA  23033.47134394  .00000568  00000-0  53784-4 0  9998,2 49748  53.2171 187.3670 0001288  97.6617 262.4521 15.08837533 64768,6917.888,95.438,540.644,538.862,0.0
49748.0,STARLINK-3248,PAYLOAD,2023-02-02 19:15:39,15.08840568,0.0001202,53.2146,185.8786,91.5784,268.5346,5.8987e-05,6.51e-06,0.0,0 STARLINK-3248,1 49748U 21115AA  23033.80254209  .00000651  00000-0  58987-4 0  9996,2 49748  53.2146 185.8786 0001202  91.5784 268.5346 15.08840568 65928,6917.879,95.438,540.575,538.912,0.0
49748.0,STARLINK-3248,PAYLOAD,2023-02-03 03:12:35,15.08833697,0.0001238,53.2157,184.3922,81.9601,278.1531,6.3007e-05,7.15e-06,0.0,0 STARLINK-3248,1 49748U 21115AA  23034.13374694  .00000715  00000-0  63007-4 0  9994,2 49748  53.2157 184.3922 0001238  81.9601 278.1531 15.08833697 65979,6917.9,95.438,540.621,538.908,0.0
49748.0,STARLINK-3248,PAYLOAD,2023-02-03 09:34:08,15.08833317,0.0001326,53.215,183.2022,82.6206,277.4937,5.4666e-05,5.82e-06,0.0,0 STARLINK-3248,1 49748U 21115AA  23034.39870888  .00000582  00000-0  54666-4 0  9991,2 49748  53.2150 183.2022 0001326  82.6206 277.4937 15.08833317 64901,6917.901,95.438,540.683,538.849,0.0
49748.0,STARLINK-3248,PAYLOAD,2023-02-03 19:06:27,15.08835226,0.0001893,53.2151,181.4179,95.1587,264.9621,3.1875e-05,2.19e-06,0.0,0 STARLINK-3248,1 49748U 21115AA  23034.79614964  .00000219  00000-0  31875-4 0  9990,2 49748  53.2151 181.4179 0001893  95.1587 264.9621 15.08835226 64963,6917.895,95.438,541.07,538.45,0.0
49748.0,STARLINK-3248,PAYLOAD,2023-02-04 14:11:03,15.08856655,0.0001353,53.2152,177.8509,76.1933,283.921,-5.7505e-05,-1.203e-05,0.0,0 STARLINK-3248,1 49748U 21115AA  23035.59101844 -.00001203  00000-0 -57505-4 0  9991,2 49748  53.2152 177.8509 0001353  76.1933 283.9210 15.08856655 66196,6917.829,95.437,540.63,538.758,0.0
49748.0,STARLINK-3248,PAYLOAD,2023-02-04 18:57:13,15.08846571,0.0001293,53.2143,176.9579,75.077,285.0366,0.00014384,2.002e-05,0.0,0 STARLINK-3248,1 49748U 21115AA  23035.78973808  .00002002  00000-0  14384-3 0  9992,2 49748  53.2143 176.9579 0001293  75.0770 285.0366 15.08846571 65115,6917.86,95.437,540.62,538.831,0.0
49748.0,STARLINK-3248,PAYLOAD,2023-02-05 02:54:09,15.08841275,0.0001519,53.2128,175.4698,87.5794,272.5372,0.00010175,1.332e-05,0.0,0 STARLINK-3248,1 49748U 21115AA  23036.12094172  .00001332  00000-0  10175-3 0  9998,2 49748  53.2128 175.4698 0001519  87.5794 272.5372 15.08841275 66271,6917.876,95.437,540.792,538.691,0.0
49748.0,STARLINK-3248,PAYLOAD,2023-02-05 14:01:51,15.08838551,0.0001456,53.2129,173.3881,91.8495,268.2664,5.0158e-05,5.1e-06,0.0,0 STARLINK-3248,1 49748U 21115AA  23036.58462541  .00000510  00000-0  50158-4 0  9990,2 49748  53.2129 173.3881 0001456  91.8495 268.2664 15.08838551 65233,6917.885,95.438,540.757,538.743,0.0
49748.0,STARLINK-3248,PAYLOAD,2023-02-05 18:48:00,15.08841925,0.0001299,53.2142,172.4963,96.7088,263.4052,6.5218e-05,7.5e-06,0.0,0 STARLINK-3248,1 49748U 21115AA  23036.78334286  .00000750  00000-0  65218-4 0  9995,2 49748  53.2142 172.4963 0001299  96.7088 263.4052 15.08841925 65266,6917.875,95.437,540.638,538.841,0.0
49748.0,STARLINK-3248,PAYLOAD,2023-02-06 09:06:29,15.08841528,0.0001426,53.2131,169.8194,96.859,263.2565,1.2453e-06,-2.68e-06,0.0,0 STARLINK-3248,1 49748U 21115AA  23037.37950551 -.00000268  00000-0  12453-5 0  9999,2 49748  53.2131 169.8194 0001426  96.8590 263.2565 15.08841528 66460,6917.876,95.437,540.727,538.754,0.0
49748.0,STARLINK-3248,PAYLOAD,2023-02-06 13:52:38,15.08843859,0.0001323,53.2145,168.9268,104.4261,255.6878,7.2621e-05,8.68e-06,0.0,0 STARLINK-3248,1 49748U 21115AA  23037.57822171  .00000868  00000-0  72621-4 0  9994,2 49748  53.2145 168.9268 0001323 104.4261 255.6878 15.08843859 65385,6917.869,95.437,540.649,538.818,0.0
49748.0,STARLINK-3248,PAYLOAD,2023-02-06 18:38:47,15.08853924,0.0001307,53.2153,168.0359,96.0467,264.0674,7.0351e-05,8.32e-06,0.0,0 STARLINK-3248,1 49748U 21115AA  23037.77693532  .00000832  00000-0  70351-4 0  9992,2 49748  53.2153 168.0359 0001307  96.0467 264.0674 15.08853924 66521,6917.838,95.437,540.607,538.799,0.0
49748.0,STARLINK-3248,PAYLOAD,2023-02-07 13:43:25,15.08845977,0.0001531,53.2151,164.4662,117.1073,243.0076,0.00013338,1.836e-05,0.0,0 STARLINK-3248,1 49748U 21115AA  23038.57181793  .00001836  00000-0  13338-3 0  9998,2 49748  53.2151 164.4662 0001531 117.1073 243.0076 15.08845977 65535,6917.862,95.437,540.786,538.668,0.0
